ONEWEB-0415             
1 51624U 22012C   25033.32620342 -.00000029  00000+0 -12025-3 0  9995
2 51624  87.8922 135.8834 0002133 104.6176 255.5188 13.10376154143825
ONEWEB-0416             
1 51625U 22012D   25033.33783366  .00000506  00000+0  14123-2 0  9991
2 51625  87.8924 135.8891 0001910 106.1235 254.0103 13.10374064143869
ONEWEB-0422             
1 51626U 22012E   25033.26366305  .00000042  00000+0  74051-4 0  9997
2 51626  87.9077 105.4520 0002341 123.1136 237.0220 13.17649218147970
ONEWEB-0423             
1 51627U 22012F   25033.18097668  .00000042  00000+0  76036-4 0  9997
2 51627  87.9078 105.4733 0001767 106.4948 253.6378 13.17649444147850
ONEWEB-0425             
1 51628U 22012G   25033.34779604  .00000645  00000+0  18108-2 0  9996
2 51628  87.8916 135.8627 0001356 102.4897 257.6382 13.10371705143864
ONEWEB-0428             
1 51629U 22012H   25033.32786556  .00000177  00000+0  46997-3 0  9997
2 51629  87.8925 135.8861 0002095 112.2080 247.9270 13.10377009143826
ONEWEB-0431             
1 51630U 22012J   25033.29784045 -.00000472  00000+0 -13879-2 0  9998
2 51630  87.8902 135.8722 0002584 110.3238 249.8167 13.10370523143871
ONEWEB-0434             
1 51631U 22012K   25033.35111827  .00000602  00000+0  16888-2 0  9994
2 51631  87.8916 135.8930 0001068 101.1474 258.9773 13.10371236143869
